[
    {
        "name": "Afghanistan",
        "isoCode": "AF",
        "isoCodeNum": "004",
        "phoneCode": "+93",
        "currency": "Ø‹",
        "currencyCode": "AFN",
        "flag": "ğŸ‡¦ğŸ‡«"
    },
    {
        "name": "Albania",
        "isoCode": "AL",
        "isoCodeNum": "008",
        "phoneCode": "+355",
        "currency": "L",
        "currencyCode": "ALL",
        "flag": "ğŸ‡¦ğŸ‡±"
    },
    {
        "name": "Algeria",
        "isoCode": "DZ",
        "isoCodeNum": "012",
        "phoneCode": "+213",
        "currency": "Ø¯.Ø¬",
        "currencyCode": "DZD",
        "flag": "ğŸ‡©ğŸ‡¿"
    },
    {
        "name": "American Samoa",
        "isoCode": "AS",
        "isoCodeNum": "016",
        "phoneCode": "+1-684",
        "currency": "$",
        "currencyCode": "USD",
        "flag": "ğŸ‡¦ğŸ‡¸"
    },
    {
        "name": "Andorra",
        "isoCode": "AD",
        "isoCodeNum": "020",
        "phoneCode": "+376",
        "currency": "â‚¬",
        "currencyCode": "EUR",
        "flag": "ğŸ‡¦ğŸ‡©"
    },
    {
        "name": "Angola",
        "isoCode": "AO",
        "isoCodeNum": "024",
        "phoneCode": "+244",
        "currency": "Kz",
        "currencyCode": "AOA",
        "flag": "ğŸ‡¦ğŸ‡´"
    },
    {
        "name": "Anguilla",
        "isoCode": "AI",
        "isoCodeNum": "660",
        "phoneCode": "+1-264",
        "currency": "$",
        "currencyCode": "XCD",
        "flag": "ğŸ‡¦ğŸ‡®"
    },
    {
        "name": "Antarctica",
        "isoCode": "AQ",
        "isoCodeNum": "010",
        "phoneCode": "+672",
        "currency": "$",
        "currencyCode": "AAD",
        "flag": "ğŸ‡¦ğŸ‡¶"
    },
    {
        "name": "Antigua and Barbuda",
        "isoCode": "AG",
        "isoCodeNum": "028",
        "phoneCode": "+1-268",
        "currency": "$",
        "currencyCode": "XCD",
        "flag": "ğŸ‡¦ğŸ‡¬"
    },
    {
        "name": "Argentina",
        "isoCode": "AR",
        "isoCodeNum": "032",
        "phoneCode": "+54",
        "currency": "$",
        "currencyCode": "ARS",
        "flag": "ğŸ‡¦ğŸ‡·"
    },
    {
        "name": "Armenia",
        "isoCode": "AM",
        "isoCodeNum": "051",
        "phoneCode": "+374",
        "currency": "Ö",
        "currencyCode": "AMD",
        "flag": "ğŸ‡¦ğŸ‡²"
    },
    {
        "name": "Aruba",
        "isoCode": "AW",
        "isoCodeNum": "533",
        "phoneCode": "+297",
        "currency": "Æ’",
        "currencyCode": "AWG",
        "flag": "ğŸ‡¦ğŸ‡¼"
    },
    {
        "name": "Australia",
        "isoCode": "AU",
        "isoCodeNum": "036",
        "phoneCode": "+61",
        "currency": "$",
        "currencyCode": "AUD",
        "flag": "ğŸ‡¦ğŸ‡º"
    },
    {
        "name": "Austria",
        "isoCode": "AT",
        "isoCodeNum": "040",
        "phoneCode": "+43",
        "currency": "â‚¬",
        "currencyCode": "EUR",
        "flag": "ğŸ‡¦ğŸ‡¹"
    },
    {
        "name": "Azerbaijan",
        "isoCode": "AZ",
        "isoCodeNum": "031",
        "phoneCode": "+994",
        "currency": "â‚¼",
        "currencyCode": "AZN",
        "flag": "ğŸ‡¦ğŸ‡¿"
    },
    {
        "name": "Bahamas",
        "isoCode": "BS",
        "isoCodeNum": "044",
        "phoneCode": "+1-242",
        "currency": "$",
        "currencyCode": "BSD",
        "flag": "ğŸ‡§ğŸ‡¸"
    },
    {
        "name": "Bahrain",
        "isoCode": "BH",
        "isoCodeNum": "048",
        "phoneCode": "+973",
        "currency": ".Ø¯.Ø¨",
        "currencyCode": "BHD",
        "flag": "ğŸ‡§ğŸ‡­"
    },
    {
        "name": "Bangladesh",
        "isoCode": "BD",
        "isoCodeNum": "050",
        "phoneCode": "+880",
        "currency": "à§³",
        "currencyCode": "BDT",
        "flag": "ğŸ‡§ğŸ‡©"
    },
    {
        "name": "Barbados",
        "isoCode": "BB",
        "isoCodeNum": "052",
        "phoneCode": "+1-246",
        "currency": "$",
        "currencyCode": "BBD",
        "flag": "ğŸ‡§ğŸ‡§"
    },
    {
        "name": "Belarus",
        "isoCode": "BY",
        "isoCodeNum": "112",
        "phoneCode": "+375",
        "currency": "Br",
        "currencyCode": "BYN",
        "flag": "ğŸ‡§ğŸ‡¾"
    },
    {
        "name": "Belgium",
        "isoCode": "BE",
        "isoCodeNum": "056",
        "phoneCode": "+32",
        "currency": "â‚¬",
        "currencyCode": "EUR",
        "flag": "ğŸ‡§ğŸ‡ª"
    },
    {
        "name": "Belize",
        "isoCode": "BZ",
        "isoCodeNum": "084",
        "phoneCode": "+501",
        "currency": "$",
        "currencyCode": "BZD",
        "flag": "ğŸ‡§ğŸ‡¿"
    },
    {
        "name": "Benin",
        "isoCode": "BJ",
        "isoCodeNum": "204",
        "phoneCode": "+229",
        "currency": "Fr",
        "currencyCode": "XOF",
        "flag": "ğŸ‡§ğŸ‡¯"
    },
    {
        "name": "Bermuda",
        "isoCode": "BM",
        "isoCodeNum": "060",
        "phoneCode": "+1-441",
        "currency": "$",
        "currencyCode": "BMD",
        "flag": "ğŸ‡§ğŸ‡²"
    },
    {
        "name": "Bhutan",
        "isoCode": "BT",
        "isoCodeNum": "064",
        "phoneCode": "+975",
        "currency": "Nu.",
        "currencyCode": "BTN",
        "flag": "ğŸ‡§ğŸ‡¹"
    },
    {
        "name": "Bolivia",
        "isoCode": "BO",
        "isoCodeNum": "068",
        "phoneCode": "+591",
        "currency": "Bs.",
        "currencyCode": "BOB",
        "flag": "ğŸ‡§ğŸ‡´"
    },
    {
        "name": "Bosnia and Herzegovina",
        "isoCode": "BA",
        "isoCodeNum": "070",
        "phoneCode": "+387",
        "currency": "KM",
        "currencyCode": "BAM",
        "flag": "ğŸ‡§ğŸ‡¦"
    },
    {
        "name": "Botswana",
        "isoCode": "BW",
        "isoCodeNum": "072",
        "phoneCode": "+267",
        "currency": "P",
        "currencyCode": "BWP",
        "flag": "ğŸ‡§ğŸ‡¼"
    },
    {
        "name": "Bouvet Island",
        "isoCode": "BV",
        "isoCodeNum": "074",
        "phoneCode": "+47",
        "currency": "kr",
        "currencyCode": "NOK",
        "flag": "ğŸ‡§ğŸ‡»"
    },
    {
        "name": "Brazil",
        "isoCode": "BR",
        "isoCodeNum": "076",
        "phoneCode": "+55",
        "currency": "R$",
        "currencyCode": "BRL",
        "flag": "ğŸ‡§ğŸ‡·"
    },
    {
        "name": "British Indian Ocean Territory",
        "isoCode": "IO",
        "isoCodeNum": "086",
        "phoneCode": "+246",
        "currency": "$",
        "currencyCode": "USD",
        "flag": "ğŸ‡®ğŸ‡´"
    },
    {
        "name": "Brunei Darussalam",
        "isoCode": "BN",
        "isoCodeNum": "096",
        "phoneCode": "+673",
        "currency": "$",
        "currencyCode": "BND",
        "flag": "ğŸ‡§ğŸ‡³"
    },
    {
        "name": "Bulgaria",
        "isoCode": "BG",
        "isoCodeNum": "100",
        "phoneCode": "+359",
        "currency": "Ğ»Ğ²",
        "currencyCode": "BGN",
        "flag": "ğŸ‡§ğŸ‡¬"
    },
    {
        "name": "Burkina Faso",
        "isoCode": "BF",
        "isoCodeNum": "854",
        "phoneCode": "+226",
        "currency": "Fr",
        "currencyCode": "XOF",
        "flag": "ğŸ‡§ğŸ‡«"
    },
    {
        "name": "Burundi",
        "isoCode": "BI",
        "isoCodeNum": "108",
        "phoneCode": "+257",
        "currency": "Fr",
        "currencyCode": "BIF",
        "flag": "ğŸ‡§ğŸ‡®"
    },
    {
        "name": "Cambodia",
        "isoCode": "KH",
        "isoCodeNum": "116",
        "phoneCode": "+855",
        "currency": "áŸ›",
        "currencyCode": "KHR",
        "flag": "ğŸ‡°ğŸ‡­"
    },
    {
        "name": "Cameroon",
        "isoCode": "CM",
        "isoCodeNum": "120",
        "phoneCode": "+237",
        "currency": "Fr",
        "currencyCode": "XAF",
        "flag": "ğŸ‡¨ğŸ‡²"
    },
    {
        "name": "Canada",
        "isoCode": "CA",
        "isoCodeNum": "124",
        "phoneCode": "+1",
        "currency": "$",
        "currencyCode": "CAD",
        "flag": "ğŸ‡¨ğŸ‡¦"
    },
    {
        "name": "Cape Verde",
        "isoCode": "CV",
        "isoCodeNum": "132",
        "phoneCode": "+238",
        "currency": "Esc",
        "currencyCode": "CVE",
        "flag": "ğŸ‡¨ğŸ‡»"
    },
    {
        "name": "Cayman Islands",
        "isoCode": "KY",
        "isoCodeNum": "136",
        "phoneCode": "+1-345",
        "currency": "$",
        "currencyCode": "KYD",
        "flag": "ğŸ‡°ğŸ‡¾"
    },
    {
        "name": "Central African Republic",
        "isoCode": "CF",
        "isoCodeNum": "140",
        "phoneCode": "+236",
        "currency": "Fr",
        "currencyCode": "XAF",
        "flag": "ğŸ‡¨ğŸ‡«"
    },
    {
        "name": "Chad",
        "isoCode": "TD",
        "isoCodeNum": "148",
        "phoneCode": "+235",
        "currency": "Fr",
        "currencyCode": "XAF",
        "flag": "ğŸ‡¹ğŸ‡©"
    },
    {
        "name": "Chile",
        "isoCode": "CL",
        "isoCodeNum": "152",
        "phoneCode": "+56",
        "currency": "$",
        "currencyCode": "CLP",
        "flag": "ğŸ‡¨ğŸ‡±"
    },
    {
        "name": "China",
        "isoCode": "CN",
        "isoCodeNum": "156",
        "phoneCode": "+86",
        "currency": "Â¥",
        "currencyCode": "CNY",
        "flag": "ğŸ‡¨ğŸ‡³"
    },
    {
        "name": "Christmas Island",
        "isoCode": "CX",
        "isoCodeNum": "162",
        "phoneCode": "+61",
        "currency": "$",
        "currencyCode": "AUD",
        "flag": "ğŸ‡¨ğŸ‡½"
    },
    {
        "name": "Cocos (Keeling) Islands",
        "isoCode": "CC",
        "isoCodeNum": "166",
        "phoneCode": "+61",
        "currency": "$",
        "currencyCode": "AUD",
        "flag": "ğŸ‡¨ğŸ‡¨"
    },
    {
        "name": "Colombia",
        "isoCode": "CO",
        "isoCodeNum": "170",
        "phoneCode": "+57",
        "currency": "$",
        "currencyCode": "COP",
        "flag": "ğŸ‡¨ğŸ‡´"
    },
    {
        "name": "Comoros",
        "isoCode": "KM",
        "isoCodeNum": "174",
        "phoneCode": "+269",
        "currency": "Fr",
        "currencyCode": "KMF",
        "flag": "ğŸ‡°ğŸ‡²"
    },
    {
        "name": "Congo (DRC)",
        "isoCode": "CD",
        "isoCodeNum": "180",
        "phoneCode": "+243",
        "currency": "Fr",
        "currencyCode": "CDF",
        "flag": "ğŸ‡¨ğŸ‡©"
    },
    {
        "name": "Congo (Republic)",
        "isoCode": "CG",
        "isoCodeNum": "178",
        "phoneCode": "+242",
        "currency": "Fr",
        "currencyCode": "XAF",
        "flag": "ğŸ‡¨ğŸ‡¬"
    },
    {
        "name": "Cook Islands",
        "isoCode": "CK",
        "isoCodeNum": "184",
        "phoneCode": "+682",
        "currency": "$",
        "currencyCode": "NZD",
        "flag": "ğŸ‡¨ğŸ‡°"
    },
    {
        "name": "Costa Rica",
        "isoCode": "CR",
        "isoCodeNum": "188",
        "phoneCode": "+506",
        "currency": "â‚¡",
        "currencyCode": "CRC",
        "flag": "ğŸ‡¨ğŸ‡·"
    },
    {
        "name": "Croatia",
        "isoCode": "HR",
        "isoCodeNum": "191",
        "phoneCode": "+385",
        "currency": "â‚¬",
        "currencyCode": "EUR",
        "flag": "ğŸ‡­ğŸ‡·"
    },
    {
        "name": "Cuba",
        "isoCode": "CU",
        "isoCodeNum": "192",
        "phoneCode": "+53",
        "currency": "$",
        "currencyCode": "CUP",
        "flag": "ğŸ‡¨ğŸ‡º"
    },
    {
        "name": "CuraÃ§ao",
        "isoCode": "CW",
        "isoCodeNum": "531",
        "phoneCode": "+599",
        "currency": "Æ’",
        "currencyCode": "ANG",
        "flag": "ğŸ‡¨ğŸ‡¼"
    },
    {
        "name": "Cyprus",
        "isoCode": "CY",
        "isoCodeNum": "196",
        "phoneCode": "+357",
        "currency": "â‚¬",
        "currencyCode": "EUR",
        "flag": "ğŸ‡¨ğŸ‡¾"
    },
    {
        "name": "Czech Republic",
        "isoCode": "CZ",
        "isoCodeNum": "203",
        "phoneCode": "+420",
        "currency": "KÄ",
        "currencyCode": "CZK",
        "flag": "ğŸ‡¨ğŸ‡¿"
    },
    {
        "name": "Denmark",
        "isoCode": "DK",
        "isoCodeNum": "208",
        "phoneCode": "+45",
        "currency": "kr",
        "currencyCode": "DKK",
        "flag": "ğŸ‡©ğŸ‡°"
    },
    {
        "name": "Djibouti",
        "isoCode": "DJ",
        "isoCodeNum": "262",
        "phoneCode": "+253",
        "currency": "Fr",
        "currencyCode": "DJF",
        "flag": "ğŸ‡©ğŸ‡¯"
    },
    {
        "name": "Dominica",
        "isoCode": "DM",
        "isoCodeNum": "212",
        "phoneCode": "+1-767",
        "currency": "$",
        "currencyCode": "XCD",
        "flag": "ğŸ‡©ğŸ‡²"
    },
    {
        "name": "Dominican Republic",
        "isoCode": "DO",
        "isoCodeNum": "214",
        "phoneCode": "+1-809",
        "currency": "$",
        "currencyCode": "DOP",
        "flag": "ğŸ‡©ğŸ‡´"
    },
    {
        "name": "Ecuador",
        "isoCode": "EC",
        "isoCodeNum": "218",
        "phoneCode": "+593",
        "currency": "$",
        "currencyCode": "USD",
        "flag": "ğŸ‡ªğŸ‡¨"
    },
    {
        "name": "Egypt",
        "isoCode": "EG",
        "isoCodeNum": "818",
        "phoneCode": "+20",
        "currency": "Â£",
        "currencyCode": "EGP",
        "flag": "ğŸ‡ªğŸ‡¬"
    },
    {
        "name": "El Salvador",
        "isoCode": "SV",
        "isoCodeNum": "222",
        "phoneCode": "+503",
        "currency": "$",
        "currencyCode": "USD",
        "flag": "ğŸ‡¸ğŸ‡»"
    },
    {
        "name": "Equatorial Guinea",
        "isoCode": "GQ",
        "isoCodeNum": "226",
        "phoneCode": "+240",
        "currency": "Fr",
        "currencyCode": "XAF",
        "flag": "ğŸ‡¬ğŸ‡¶"
    },
    {
        "name": "Eritrea",
        "isoCode": "ER",
        "isoCodeNum": "232",
        "phoneCode": "+291",
        "currency": "Nfk",
        "currencyCode": "ERN",
        "flag": "ğŸ‡ªğŸ‡·"
    },
    {
        "name": "Estonia",
        "isoCode": "EE",
        "isoCodeNum": "233",
        "phoneCode": "+372",
        "currency": "â‚¬",
        "currencyCode": "EUR",
        "flag": "ğŸ‡ªğŸ‡ª"
    },
    {
        "name": "Ethiopia",
        "isoCode": "ET",
        "isoCodeNum": "231",
        "phoneCode": "+251",
        "currency": "Br",
        "currencyCode": "ETB",
        "flag": "ğŸ‡ªğŸ‡¹"
    },
    {
        "name": "Falkland Islands",
        "isoCode": "FK",
        "isoCodeNum": "238",
        "phoneCode": "+500",
        "currency": "Â£",
        "currencyCode": "FKP",
        "flag": "ğŸ‡«ğŸ‡°"
    },
    {
        "name": "Faroe Islands",
        "isoCode": "FO",
        "isoCodeNum": "234",
        "phoneCode": "+298",
        "currency": "kr",
        "currencyCode": "DKK",
        "flag": "ğŸ‡«ğŸ‡´"
    },
    {
        "name": "Fiji",
        "isoCode": "FJ",
        "isoCodeNum": "242",
        "phoneCode": "+679",
        "currency": "$",
        "currencyCode": "FJD",
        "flag": "ğŸ‡«ğŸ‡¯"
    },
    {
        "name": "Finland",
        "isoCode": "FI",
        "isoCodeNum": "246",
        "phoneCode": "+358",
        "currency": "â‚¬",
        "currencyCode": "EUR",
        "flag": "ğŸ‡«ğŸ‡®"
    },
    {
        "name": "France",
        "isoCode": "FR",
        "isoCodeNum": "250",
        "phoneCode": "+33",
        "currency": "â‚¬",
        "currencyCode": "EUR",
        "flag": "ğŸ‡«ğŸ‡·"
    },
    {
        "name": "French Guiana",
        "isoCode": "GF",
        "isoCodeNum": "254",
        "phoneCode": "+594",
        "currency": "â‚¬",
        "currencyCode": "EUR",
        "flag": "ğŸ‡¬ğŸ‡«"
    },
    {
        "name": "French Polynesia",
        "isoCode": "PF",
        "isoCodeNum": "258",
        "phoneCode": "+689",
        "currency": "Fr",
        "currencyCode": "XPF",
        "flag": "ğŸ‡µğŸ‡«"
    },
    {
        "name": "Gabon",
        "isoCode": "GA",
        "isoCodeNum": "266",
        "phoneCode": "+241",
        "currency": "Fr",
        "currencyCode": "XAF",
        "flag": "ğŸ‡¬ğŸ‡¦"
    },
    {
        "name": "Gambia",
        "isoCode": "GM",
        "isoCodeNum": "270",
        "phoneCode": "+220",
        "currency": "D",
        "currencyCode": "GMD",
        "flag": "ğŸ‡¬ğŸ‡²"
    },
    {
        "name": "Georgia",
        "isoCode": "GE",
        "isoCodeNum": "268",
        "phoneCode": "+995",
        "currency": "â‚¾",
        "currencyCode": "GEL",
        "flag": "ğŸ‡¬ğŸ‡ª"
    },
    {
        "name": "Germany",
        "isoCode": "DE",
        "isoCodeNum": "276",
        "phoneCode": "+49",
        "currency": "â‚¬",
        "currencyCode": "EUR",
        "flag": "ğŸ‡©ğŸ‡ª"
    },
    {
        "name": "Ghana",
        "isoCode": "GH",
        "isoCodeNum": "288",
        "phoneCode": "+233",
        "currency": "â‚µ",
        "currencyCode": "GHS",
        "flag": "ğŸ‡¬ğŸ‡­"
    },
    {
        "name": "Gibraltar",
        "isoCode": "GI",
        "isoCodeNum": "292",
        "phoneCode": "+350",
        "currency": "Â£",
        "currencyCode": "GIP",
        "flag": "ğŸ‡¬ğŸ‡®"
    },
    {
        "name": "Greece",
        "isoCode": "GR",
        "isoCodeNum": "300",
        "phoneCode": "+30",
        "currency": "â‚¬",
        "currencyCode": "EUR",
        "flag": "ğŸ‡¬ğŸ‡·"
    },
    {
        "name": "Greenland",
        "isoCode": "GL",
        "isoCodeNum": "304",
        "phoneCode": "+299",
        "currency": "kr",
        "currencyCode": "DKK",
        "flag": "ğŸ‡¬ğŸ‡±"
    },
    {
        "name": "Grenada",
        "isoCode": "GD",
        "isoCodeNum": "308",
        "phoneCode": "+1-473",
        "currency": "$",
        "currencyCode": "XCD",
        "flag": "ğŸ‡¬ğŸ‡©"
    },
    {
        "name": "Guadeloupe",
        "isoCode": "GP",
        "isoCodeNum": "312",
        "phoneCode": "+590",
        "currency": "â‚¬",
        "currencyCode": "EUR",
        "flag": "ğŸ‡¬ğŸ‡µ"
    },
    {
        "name": "Guam",
        "isoCode": "GU",
        "isoCodeNum": "316",
        "phoneCode": "+1-671",
        "currency": "$",
        "currencyCode": "USD",
        "flag": "ğŸ‡¬ğŸ‡º"
    },
    {
        "name": "Guatemala",
        "isoCode": "GT",
        "isoCodeNum": "320",
        "phoneCode": "+502",
        "currency": "Q",
        "currencyCode": "GTQ",
        "flag": "ğŸ‡¬ğŸ‡¹"
    },
    {
        "name": "Guernsey",
        "isoCode": "GG",
        "isoCodeNum": "831",
        "phoneCode": "+44",
        "currency": "Â£",
        "currencyCode": "GBP",
        "flag": "ğŸ‡¬ğŸ‡¬"
    },
    {
        "name": "Guinea",
        "isoCode": "GN",
        "isoCodeNum": "324",
        "phoneCode": "+224",
        "currency": "Fr",
        "currencyCode": "GNF",
        "flag": "ğŸ‡¬ğŸ‡³"
    },
    {
        "name": "Guinea-Bissau",
        "isoCode": "GW",
        "isoCodeNum": "624",
        "phoneCode": "+245",
        "currency": "Fr",
        "currencyCode": "XOF",
        "flag": "ğŸ‡¬ğŸ‡¼"
    },
    {
        "name": "Guyana",
        "isoCode": "GY",
        "isoCodeNum": "328",
        "phoneCode": "+592",
        "currency": "$",
        "currencyCode": "GYD",
        "flag": "ğŸ‡¬ğŸ‡¾"
    },
    {
        "name": "Haiti",
        "isoCode": "HT",
        "isoCodeNum": "332",
        "phoneCode": "+509",
        "currency": "G",
        "currencyCode": "HTG",
        "flag": "ğŸ‡­ğŸ‡¹"
    },
    {
        "name": "Honduras",
        "isoCode": "HN",
        "isoCodeNum": "340",
        "phoneCode": "+504",
        "currency": "L",
        "currencyCode": "HNL",
        "flag": "ğŸ‡­ğŸ‡³"
    },
    {
        "name": "Hong Kong",
        "isoCode": "HK",
        "isoCodeNum": "344",
        "phoneCode": "+852",
        "currency": "$",
        "currencyCode": "HKD",
        "flag": "ğŸ‡­ğŸ‡°"
    },
    {
        "name": "Hungary",
        "isoCode": "HU",
        "isoCodeNum": "348",
        "phoneCode": "+36",
        "currency": "Ft",
        "currencyCode": "HUF",
        "flag": "ğŸ‡­ğŸ‡º"
    },
    {
        "name": "Iceland",
        "isoCode": "IS",
        "isoCodeNum": "352",
        "phoneCode": "+354",
        "currency": "kr",
        "currencyCode": "ISK",
        "flag": "ğŸ‡®ğŸ‡¸"
    },
    {
        "name": "India",
        "isoCode": "IN",
        "isoCodeNum": "356",
        "phoneCode": "+91",
        "currency": "â‚¹",
        "currencyCode": "INR",
        "flag": "ğŸ‡®ğŸ‡³"
    },
    {
        "name": "Indonesia",
        "isoCode": "ID",
        "isoCodeNum": "360",
        "phoneCode": "+62",
        "currency": "Rp",
        "currencyCode": "IDR",
        "flag": "ğŸ‡®ğŸ‡©"
    },
    {
        "name": "Iran",
        "isoCode": "IR",
        "isoCodeNum": "364",
        "phoneCode": "+98",
        "currency": "ï·¼",
        "currencyCode": "IRR",
        "flag": "ğŸ‡®ğŸ‡·"
    },
    {
        "name": "Iraq",
        "isoCode": "IQ",
        "isoCodeNum": "368",
        "phoneCode": "+964",
        "currency": "Ø¹.Ø¯",
        "currencyCode": "IQD",
        "flag": "ğŸ‡®ğŸ‡¶"
    },
    {
        "name": "Ireland",
        "isoCode": "IE",
        "isoCodeNum": "372",
        "phoneCode": "+353",
        "currency": "â‚¬",
        "currencyCode": "EUR",
        "flag": "ğŸ‡®ğŸ‡ª"
    },
    {
        "name": "Isle of Man",
        "isoCode": "IM",
        "isoCodeNum": "833",
        "phoneCode": "+44",
        "currency": "Â£",
        "currencyCode": "GBP",
        "flag": "ğŸ‡®ğŸ‡²"
    },
    {
        "name": "Israel",
        "isoCode": "IL",
        "isoCodeNum": "376",
        "phoneCode": "+972",
        "currency": "â‚ª",
        "currencyCode": "ILS",
        "flag": "ğŸ‡®ğŸ‡±"
    },
    {
        "name": "Italy",
        "isoCode": "IT",
        "isoCodeNum": "380",
        "phoneCode": "+39",
        "currency": "â‚¬",
        "currencyCode": "EUR",
        "flag": "ğŸ‡®ğŸ‡¹"
    },
    {
        "name": "Jamaica",
        "isoCode": "JM",
        "isoCodeNum": "388",
        "phoneCode": "+1-876",
        "currency": "$",
        "currencyCode": "JMD",
        "flag": "ğŸ‡¯ğŸ‡²"
    },
    {
        "name": "Japan",
        "isoCode": "JP",
        "isoCodeNum": "392",
        "phoneCode": "+81",
        "currency": "Â¥",
        "currencyCode": "JPY",
        "flag": "ğŸ‡¯ğŸ‡µ"
    },
    {
        "name": "Jersey",
        "isoCode": "JE",
        "isoCodeNum": "832",
        "phoneCode": "+44",
        "currency": "Â£",
        "currencyCode": "GBP",
        "flag": "ğŸ‡¯ğŸ‡ª"
    },
    {
        "name": "Jordan",
        "isoCode": "JO",
        "isoCodeNum": "400",
        "phoneCode": "+962",
        "currency": "Ø¯.Ø§",
        "currencyCode": "JOD",
        "flag": "ğŸ‡¯ğŸ‡´"
    },
    {
        "name": "Kazakhstan",
        "isoCode": "KZ",
        "isoCodeNum": "398",
        "phoneCode": "+7",
        "currency": "â‚¸",
        "currencyCode": "KZT",
        "flag": "ğŸ‡°ğŸ‡¿"
    },
    {
        "name": "Kenya",
        "isoCode": "KE",
        "isoCodeNum": "404",
        "phoneCode": "+254",
        "currency": "Sh",
        "currencyCode": "KES",
        "flag": "ğŸ‡°ğŸ‡ª"
    },
    {
        "name": "Kiribati",
        "isoCode": "KI",
        "isoCodeNum": "296",
        "phoneCode": "+686",
        "currency": "$",
        "currencyCode": "AUD",
        "flag": "ğŸ‡°ğŸ‡®"
    },
    {
        "name": "Korea (North)",
        "isoCode": "KP",
        "isoCodeNum": "408",
        "phoneCode": "+850",
        "currency": "â‚©",
        "currencyCode": "KPW",
        "flag": "ğŸ‡°ğŸ‡µ"
    },
    {
        "name": "Korea (South)",
        "isoCode": "KR",
        "isoCodeNum": "410",
        "phoneCode": "+82",
        "currency": "â‚©",
        "currencyCode": "KRW",
        "flag": "ğŸ‡°ğŸ‡·"
    },
    {
        "name": "Kuwait",
        "isoCode": "KW",
        "isoCodeNum": "414",
        "phoneCode": "+965",
        "currency": "Ø¯.Ùƒ",
        "currencyCode": "KWD",
        "flag": "ğŸ‡°ğŸ‡¼"
    },
    {
        "name": "Kyrgyzstan",
        "isoCode": "KG",
        "isoCodeNum": "417",
        "phoneCode": "+996",
        "currency": "Ñ",
        "currencyCode": "KGS",
        "flag": "ğŸ‡°ğŸ‡¬"
    },
    {
        "name": "Laos",
        "isoCode": "LA",
        "isoCodeNum": "418",
        "phoneCode": "+856",
        "currency": "â‚­",
        "currencyCode": "LAK",
        "flag": "ğŸ‡±ğŸ‡¦"
    },
    {
        "name": "Latvia",
        "isoCode": "LV",
        "isoCodeNum": "428",
        "phoneCode": "+371",
        "currency": "â‚¬",
        "currencyCode": "EUR",
        "flag": "ğŸ‡±ğŸ‡»"
    },
    {
        "name": "Lebanon",
        "isoCode": "LB",
        "isoCodeNum": "422",
        "phoneCode": "+961",
        "currency": "Ù„.Ù„",
        "currencyCode": "LBP",
        "flag": "ğŸ‡±ğŸ‡§"
    },
    {
        "name": "Lesotho",
        "isoCode": "LS",
        "isoCodeNum": "426",
        "phoneCode": "+266",
        "currency": "L",
        "currencyCode": "LSL",
        "flag": "ğŸ‡±ğŸ‡¸"
    },
    {
        "name": "Liberia",
        "isoCode": "LR",
        "isoCodeNum": "430",
        "phoneCode": "+231",
        "currency": "$",
        "currencyCode": "LRD",
        "flag": "ğŸ‡±ğŸ‡·"
    },
    {
        "name": "Libya",
        "isoCode": "LY",
        "isoCodeNum": "434",
        "phoneCode": "+218",
        "currency": "Ù„.Ø¯",
        "currencyCode": "LYD",
        "flag": "ğŸ‡±ğŸ‡¾"
    },
    {
        "name": "Liechtenstein",
        "isoCode": "LI",
        "isoCodeNum": "438",
        "phoneCode": "+423",
        "currency": "Fr",
        "currencyCode": "CHF",
        "flag": "ğŸ‡±ğŸ‡®"
    },
    {
        "name": "Lithuania",
        "isoCode": "LT",
        "isoCodeNum": "440",
        "phoneCode": "+370",
        "currency": "â‚¬",
        "currencyCode": "EUR",
        "flag": "ğŸ‡±ğŸ‡¹"
    },
    {
        "name": "Luxembourg",
        "isoCode": "LU",
        "isoCodeNum": "442",
        "phoneCode": "+352",
        "currency": "â‚¬",
        "currencyCode": "EUR",
        "flag": "ğŸ‡±ğŸ‡º"
    },
    {
        "name": "Macau",
        "isoCode": "MO",
        "isoCodeNum": "446",
        "phoneCode": "+853",
        "currency": "P",
        "currencyCode": "MOP",
        "flag": "ğŸ‡²ğŸ‡´"
    },
    {
        "name": "Macedonia",
        "isoCode": "MK",
        "isoCodeNum": "807",
        "phoneCode": "+389",
        "currency": "Ğ´ĞµĞ½",
        "currencyCode": "MKD",
        "flag": "ğŸ‡²ğŸ‡°"
    },
    {
        "name": "Madagascar",
        "isoCode": "MG",
        "isoCodeNum": "450",
        "phoneCode": "+261",
        "currency": "Ar",
        "currencyCode": "MGA",
        "flag": "ğŸ‡²ğŸ‡¬"
    },
    {
        "name": "Malawi",
        "isoCode": "MW",
        "isoCodeNum": "454",
        "phoneCode": "+265",
        "currency": "MK",
        "currencyCode": "MWK",
        "flag": "ğŸ‡²ğŸ‡¼"
    },
    {
        "name": "Malaysia",
        "isoCode": "MY",
        "isoCodeNum": "458",
        "phoneCode": "+60",
        "currency": "RM",
        "currencyCode": "MYR",
        "flag": "ğŸ‡²ğŸ‡¾"
    },
    {
        "name": "Maldives",
        "isoCode": "MV",
        "isoCodeNum": "462",
        "phoneCode": "+960",
        "currency": ".Şƒ",
        "currencyCode": "MVR",
        "flag": "ğŸ‡²ğŸ‡»"
    },
    {
        "name": "Mali",
        "isoCode": "ML",
        "isoCodeNum": "466",
        "phoneCode": "+223",
        "currency": "Fr",
        "currencyCode": "XOF",
        "flag": "ğŸ‡²ğŸ‡±"
    },
    {
        "name": "Malta",
        "isoCode": "MT",
        "isoCodeNum": "470",
        "phoneCode": "+356",
        "currency": "â‚¬",
        "currencyCode": "EUR",
        "flag": "ğŸ‡²ğŸ‡¹"
    },
    {
        "name": "Marshall Islands",
        "isoCode": "MH",
        "isoCodeNum": "584",
        "phoneCode": "+692",
        "currency": "$",
        "currencyCode": "USD",
        "flag": "ğŸ‡²ğŸ‡­"
    },
    {
        "name": "Martinique",
        "isoCode": "MQ",
        "isoCodeNum": "474",
        "phoneCode": "+596",
        "currency": "â‚¬",
        "currencyCode": "EUR",
        "flag": "ğŸ‡²ğŸ‡¶"
    },
    {
        "name": "Mauritania",
        "isoCode": "MR",
        "isoCodeNum": "478",
        "phoneCode": "+222",
        "currency": "UM",
        "currencyCode": "MRU",
        "flag": "ğŸ‡²ğŸ‡·"
    },
    {
        "name": "Mauritius",
        "isoCode": "MU",
        "isoCodeNum": "480",
        "phoneCode": "+230",
        "currency": "â‚¨",
        "currencyCode": "MUR",
        "flag": "ğŸ‡²ğŸ‡º"
    },
    {
        "name": "Mayotte",
        "isoCode": "YT",
        "isoCodeNum": "175",
        "phoneCode": "+262",
        "currency": "â‚¬",
        "currencyCode": "EUR",
        "flag": "ğŸ‡¾ğŸ‡¹"
    },
    {
        "name": "Mexico",
        "isoCode": "MX",
        "isoCodeNum": "484",
        "phoneCode": "+52",
        "currency": "$",
        "currencyCode": "MXN",
        "flag": "ğŸ‡²ğŸ‡½"
    },
    {
        "name": "Micronesia",
        "isoCode": "FM",
        "isoCodeNum": "583",
        "phoneCode": "+691",
        "currency": "$",
        "currencyCode": "USD",
        "flag": "ğŸ‡«ğŸ‡²"
    },
    {
        "name": "Moldova",
        "isoCode": "MD",
        "isoCodeNum": "498",
        "phoneCode": "+373",
        "currency": "L",
        "currencyCode": "MDL",
        "flag": "ğŸ‡²ğŸ‡©"
    },
    {
        "name": "Monaco",
        "isoCode": "MC",
        "isoCodeNum": "492",
        "phoneCode": "+377",
        "currency": "â‚¬",
        "currencyCode": "EUR",
        "flag": "ğŸ‡²ğŸ‡¨"
    },
    {
        "name": "Mongolia",
        "isoCode": "MN",
        "isoCodeNum": "496",
        "phoneCode": "+976",
        "currency": "â‚®",
        "currencyCode": "MNT",
        "flag": "ğŸ‡²ğŸ‡³"
    },
    {
        "name": "Montenegro",
        "isoCode": "ME",
        "isoCodeNum": "499",
        "phoneCode": "+382",
        "currency": "â‚¬",
        "currencyCode": "EUR",
        "flag": "ğŸ‡²ğŸ‡ª"
    },
    {
        "name": "Montserrat",
        "isoCode": "MS",
        "isoCodeNum": "500",
        "phoneCode": "+1-664",
        "currency": "$",
        "currencyCode": "XCD",
        "flag": "ğŸ‡²ğŸ‡¸"
    },
    {
        "name": "Morocco",
        "isoCode": "MA",
        "isoCodeNum": "504",
        "phoneCode": "+212",
        "currency": "Ø¯.Ù….",
        "currencyCode": "MAD",
        "flag": "ğŸ‡²ğŸ‡¦"
    },
    {
        "name": "Mozambique",
        "isoCode": "MZ",
        "isoCodeNum": "508",
        "phoneCode": "+258",
        "currency": "MT",
        "currencyCode": "MZN",
        "flag": "ğŸ‡²ğŸ‡¿"
    },
    {
        "name": "Myanmar",
        "isoCode": "MM",
        "isoCodeNum": "104",
        "phoneCode": "+95",
        "currency": "K",
        "currencyCode": "MMK",
        "flag": "ğŸ‡²ğŸ‡²"
    },
    {
        "name": "Namibia",
        "isoCode": "NA",
        "isoCodeNum": "516",
        "phoneCode": "+264",
        "currency": "$",
        "currencyCode": "NAD",
        "flag": "ğŸ‡³ğŸ‡¦"
    },
    {
        "name": "Nauru",
        "isoCode": "NR",
        "isoCodeNum": "520",
        "phoneCode": "+674",
        "currency": "$",
        "currencyCode": "AUD",
        "flag": "ğŸ‡³ğŸ‡·"
    },
    {
        "name": "Nepal",
        "isoCode": "NP",
        "isoCodeNum": "524",
        "phoneCode": "+977",
        "currency": "â‚¨",
        "currencyCode": "NPR",
        "flag": "ğŸ‡³ğŸ‡µ"
    },
    {
        "name": "Netherlands",
        "isoCode": "NL",
        "isoCodeNum": "528",
        "phoneCode": "+31",
        "currency": "â‚¬",
        "currencyCode": "EUR",
        "flag": "ğŸ‡³ğŸ‡±"
    },
    {
        "name": "New Caledonia",
        "isoCode": "NC",
        "isoCodeNum": "540",
        "phoneCode": "+687",
        "currency": "Fr",
        "currencyCode": "XPF",
        "flag": "ğŸ‡³ğŸ‡¨"
    },
    {
        "name": "New Zealand",
        "isoCode": "NZ",
        "isoCodeNum": "554",
        "phoneCode": "+64",
        "currency": "$",
        "currencyCode": "NZD",
        "flag": "ğŸ‡³ğŸ‡¿"
    },
    {
        "name": "Nicaragua",
        "isoCode": "NI",
        "isoCodeNum": "558",
        "phoneCode": "+505",
        "currency": "C$",
        "currencyCode": "NIO",
        "flag": "ğŸ‡³ğŸ‡®"
    },
    {
        "name": "Niger",
        "isoCode": "NE",
        "isoCodeNum": "562",
        "phoneCode": "+227",
        "currency": "Fr",
        "currencyCode": "XOF",
        "flag": "ğŸ‡³ğŸ‡ª"
    },
    {
        "name": "Nigeria",
        "isoCode": "NG",
        "isoCodeNum": "566",
        "phoneCode": "+234",
        "currency": "â‚¦",
        "currencyCode": "NGN",
        "flag": "ğŸ‡³ğŸ‡¬"
    },
    {
        "name": "Niue",
        "isoCode": "NU",
        "isoCodeNum": "570",
        "phoneCode": "+683",
        "currency": "$",
        "currencyCode": "NZD",
        "flag": "ğŸ‡³ğŸ‡º"
    },
    {
        "name": "Norfolk Island",
        "isoCode": "NF",
        "isoCodeNum": "574",
        "phoneCode": "+672",
        "currency": "$",
        "currencyCode": "AUD",
        "flag": "ğŸ‡³ğŸ‡«"
    },
    {
        "name": "Northern Mariana Islands",
        "isoCode": "MP",
        "isoCodeNum": "580",
        "phoneCode": "+1-670",
        "currency": "$",
        "currencyCode": "USD",
        "flag": "ğŸ‡²ğŸ‡µ"
    },
    {
        "name": "Norway",
        "isoCode": "NO",
        "isoCodeNum": "578",
        "phoneCode": "+47",
        "currency": "kr",
        "currencyCode": "NOK",
        "flag": "ğŸ‡³ğŸ‡´"
    },
    {
        "name": "Oman",
        "isoCode": "OM",
        "isoCodeNum": "512",
        "phoneCode": "+968",
        "currency": "Ø±.Ø¹.",
        "currencyCode": "OMR",
        "flag": "ğŸ‡´ğŸ‡²"
    },
    {
        "name": "Pakistan",
        "isoCode": "PK",
        "isoCodeNum": "586",
        "phoneCode": "+92",
        "currency": "â‚¨",
        "currencyCode": "PKR",
        "flag": "ğŸ‡µğŸ‡°"
    },
    {
        "name": "Palau",
        "isoCode": "PW",
        "isoCodeNum": "585",
        "phoneCode": "+680",
        "currency": "$",
        "currencyCode": "USD",
        "flag": "ğŸ‡µğŸ‡¼"
    },
    {
        "name": "Palestine",
        "isoCode": "PS",
        "isoCodeNum": "275",
        "phoneCode": "+970",
        "currency": "â‚ª",
        "currencyCode": "ILS",
        "flag": "ğŸ‡µğŸ‡¸"
    },
    {
        "name": "Panama",
        "isoCode": "PA",
        "isoCodeNum": "591",
        "phoneCode": "+507",
        "currency": "B/.",
        "currencyCode": "PAB",
        "flag": "ğŸ‡µğŸ‡¦"
    },
    {
        "name": "Papua New Guinea",
        "isoCode": "PG",
        "isoCodeNum": "598",
        "phoneCode": "+675",
        "currency": "K",
        "currencyCode": "PGK",
        "flag": "ğŸ‡µğŸ‡¬"
    },
    {
        "name": "Paraguay",
        "isoCode": "PY",
        "isoCodeNum": "600",
        "phoneCode": "+595",
        "currency": "â‚²",
        "currencyCode": "PYG",
        "flag": "ğŸ‡µğŸ‡¾"
    },
    {
        "name": "Peru",
        "isoCode": "PE",
        "isoCodeNum": "604",
        "phoneCode": "+51",
        "currency": "S/.",
        "currencyCode": "PEN",
        "flag": "ğŸ‡µğŸ‡ª"
    },
    {
        "name": "Philippines",
        "isoCode": "PH",
        "isoCodeNum": "608",
        "phoneCode": "+63",
        "currency": "â‚±",
        "currencyCode": "PHP",
        "flag": "ğŸ‡µğŸ‡­"
    },
    {
        "name": "Pitcairn",
        "isoCode": "PN",
        "isoCodeNum": "612",
        "phoneCode": "+64",
        "currency": "$",
        "currencyCode": "NZD",
        "flag": "ğŸ‡µğŸ‡³"
    },
    {
        "name": "Poland",
        "isoCode": "PL",
        "isoCodeNum": "616",
        "phoneCode": "+48",
        "currency": "zÅ‚",
        "currencyCode": "PLN",
        "flag": "ğŸ‡µğŸ‡±"
    },
    {
        "name": "Portugal",
        "isoCode": "PT",
        "isoCodeNum": "620",
        "phoneCode": "+351",
        "currency": "â‚¬",
        "currencyCode": "EUR",
        "flag": "ğŸ‡µğŸ‡¹"
    },
    {
        "name": "Puerto Rico",
        "isoCode": "PR",
        "isoCodeNum": "630",
        "phoneCode": "+1-787",
        "currency": "$",
        "currencyCode": "USD",
        "flag": "ğŸ‡µğŸ‡·"
    },
    {
        "name": "Qatar",
        "isoCode": "QA",
        "isoCodeNum": "634",
        "phoneCode": "+974",
        "currency": "Ø±.Ù‚",
        "currencyCode": "QAR",
        "flag": "ğŸ‡¶ğŸ‡¦"
    },
    {
        "name": "RÃ©union",
        "isoCode": "RE",
        "isoCodeNum": "638",
        "phoneCode": "+262",
        "currency": "â‚¬",
        "currencyCode": "EUR",
        "flag": "ğŸ‡·ğŸ‡ª"
    },
    {
        "name": "Romania",
        "isoCode": "RO",
        "isoCodeNum": "642",
        "phoneCode": "+40",
        "currency": "lei",
        "currencyCode": "RON",
        "flag": "ğŸ‡·ğŸ‡´"
    },
    {
        "name": "Russia",
        "isoCode": "RU",
        "isoCodeNum": "643",
        "phoneCode": "+7",
        "currency": "â‚½",
        "currencyCode": "RUB",
        "flag": "ğŸ‡·ğŸ‡º"
    },
    {
        "name": "Rwanda",
        "isoCode": "RW",
        "isoCodeNum": "646",
        "phoneCode": "+250",
        "currency": "Fr",
        "currencyCode": "RWF",
        "flag": "ğŸ‡·ğŸ‡¼"
    },
    {
        "name": "Saint BarthÃ©lemy",
        "isoCode": "BL",
        "isoCodeNum": "652",
        "phoneCode": "+590",
        "currency": "â‚¬",
        "currencyCode": "EUR",
        "flag": "ğŸ‡§ğŸ‡±"
    },
    {
        "name": "Saint Helena",
        "isoCode": "SH",
        "isoCodeNum": "654",
        "phoneCode": "+290",
        "currency": "Â£",
        "currencyCode": "SHP",
        "flag": "ğŸ‡¸ğŸ‡­"
    },
    {
        "name": "Saint Kitts and Nevis",
        "isoCode": "KN",
        "isoCodeNum": "659",
        "phoneCode": "+1-869",
        "currency": "$",
        "currencyCode": "XCD",
        "flag": "ğŸ‡°ğŸ‡³"
    },
    {
        "name": "Saint Lucia",
        "isoCode": "LC",
        "isoCodeNum": "662",
        "phoneCode": "+1-758",
        "currency": "$",
        "currencyCode": "XCD",
        "flag": "ğŸ‡±ğŸ‡¨"
    },
    {
        "name": "Saint Martin (French)",
        "isoCode": "MF",
        "isoCodeNum": "663",
        "phoneCode": "+590",
        "currency": "â‚¬",
        "currencyCode": "EUR",
        "flag": "ğŸ‡²ğŸ‡«"
    },
    {
        "name": "Saint Pierre and Miquelon",
        "isoCode": "PM",
        "isoCodeNum": "666",
        "phoneCode": "+508",
        "currency": "â‚¬",
        "currencyCode": "EUR",
        "flag": "ğŸ‡µğŸ‡²"
    },
    {
        "name": "Saint Vincent and the Grenadines",
        "isoCode": "VC",
        "isoCodeNum": "670",
        "phoneCode": "+1-784",
        "currency": "$",
        "currencyCode": "XCD",
        "flag": "ğŸ‡»ğŸ‡¨"
    },
    {
        "name": "Samoa",
        "isoCode": "WS",
        "isoCodeNum": "882",
        "phoneCode": "+685",
        "currency": "T",
        "currencyCode": "WST",
        "flag": "ğŸ‡¼ğŸ‡¸"
    },
    {
        "name": "San Marino",
        "isoCode": "SM",
        "isoCodeNum": "674",
        "phoneCode": "+378",
        "currency": "â‚¬",
        "currencyCode": "EUR",
        "flag": "ğŸ‡¸ğŸ‡²"
    },
    {
        "name": "Sao Tome and Principe",
        "isoCode": "ST",
        "isoCodeNum": "678",
        "phoneCode": "+239",
        "currency": "Db",
        "currencyCode": "STN",
        "flag": "ğŸ‡¸ğŸ‡¹"
    },
    {
        "name": "Saudi Arabia",
        "isoCode": "SA",
        "isoCodeNum": "682",
        "phoneCode": "+966",
        "currency": "Ø±.Ø³",
        "currencyCode": "SAR",
        "flag": "ğŸ‡¸ğŸ‡¦"
    },
    {
        "name": "Senegal",
        "isoCode": "SN",
        "isoCodeNum": "686",
        "phoneCode": "+221",
        "currency": "Fr",
        "currencyCode": "XOF",
        "flag": "ğŸ‡¸ğŸ‡³"
    },
    {
        "name": "Serbia",
        "isoCode": "RS",
        "isoCodeNum": "688",
        "phoneCode": "+381",
        "currency": "Ğ´Ğ¸Ğ½",
        "currencyCode": "RSD",
        "flag": "ğŸ‡·ğŸ‡¸"
    },
    {
        "name": "Seychelles",
        "isoCode": "SC",
        "isoCodeNum": "690",
        "phoneCode": "+248",
        "currency": "â‚¨",
        "currencyCode": "SCR",
        "flag": "ğŸ‡¸ğŸ‡¨"
    },
    {
        "name": "Sierra Leone",
        "isoCode": "SL",
        "isoCodeNum": "694",
        "phoneCode": "+232",
        "currency": "Le",
        "currencyCode": "SLL",
        "flag": "ğŸ‡¸ğŸ‡±"
    },
    {
        "name": "Singapore",
        "isoCode": "SG",
        "isoCodeNum": "702",
        "phoneCode": "+65",
        "currency": "$",
        "currencyCode": "SGD",
        "flag": "ğŸ‡¸ğŸ‡¬"
    },
    {
        "name": "Sint Maarten (Dutch)",
        "isoCode": "SX",
        "isoCodeNum": "534",
        "phoneCode": "+1-721",
        "currency": "Æ’",
        "currencyCode": "ANG",
        "flag": "ğŸ‡¸ğŸ‡½"
    },
    {
        "name": "Slovakia",
        "isoCode": "SK",
        "isoCodeNum": "703",
        "phoneCode": "+421",
        "currency": "â‚¬",
        "currencyCode": "EUR",
        "flag": "ğŸ‡¸ğŸ‡°"
    },
    {
        "name": "Slovenia",
        "isoCode": "SI",
        "isoCodeNum": "705",
        "phoneCode": "+386",
        "currency": "â‚¬",
        "currencyCode": "EUR",
        "flag": "ğŸ‡¸ğŸ‡®"
    },
    {
        "name": "Solomon Islands",
        "isoCode": "SB",
        "isoCodeNum": "090",
        "phoneCode": "+677",
        "currency": "$",
        "currencyCode": "SBD",
        "flag": "ğŸ‡¸ğŸ‡§"
    },
    {
        "name": "Somalia",
        "isoCode": "SO",
        "isoCodeNum": "706",
        "phoneCode": "+252",
        "currency": "Sh",
        "currencyCode": "SOS",
        "flag": "ğŸ‡¸ğŸ‡´"
    },
    {
        "name": "South Africa",
        "isoCode": "ZA",
        "isoCodeNum": "710",
        "phoneCode": "+27",
        "currency": "R",
        "currencyCode": "ZAR",
        "flag": "ğŸ‡¿ğŸ‡¦"
    },
    {
        "name": "South Sudan",
        "isoCode": "SS",
        "isoCodeNum": "728",
        "phoneCode": "+211",
        "currency": "Â£",
        "currencyCode": "SSP",
        "flag": "ğŸ‡¸ğŸ‡¸"
    },
    {
        "name": "Spain",
        "isoCode": "ES",
        "isoCodeNum": "724",
        "phoneCode": "+34",
        "currency": "â‚¬",
        "currencyCode": "EUR",
        "flag": "ğŸ‡ªğŸ‡¸"
    },
    {
        "name": "Sri Lanka",
        "isoCode": "LK",
        "isoCodeNum": "144",
        "phoneCode": "+94",
        "currency": "Rs",
        "currencyCode": "LKR",
        "flag": "ğŸ‡±ğŸ‡°"
    },
    {
        "name": "Sudan",
        "isoCode": "SD",
        "isoCodeNum": "729",
        "phoneCode": "+249",
        "currency": "Ø¬.Ø³.",
        "currencyCode": "SDG",
        "flag": "ğŸ‡¸ğŸ‡©"
    },
    {
        "name": "Suriname",
        "isoCode": "SR",
        "isoCodeNum": "740",
        "phoneCode": "+597",
        "currency": "$",
        "currencyCode": "SRD",
        "flag": "ğŸ‡¸ğŸ‡·"
    },
    {
        "name": "Svalbard and Jan Mayen",
        "isoCode": "SJ",
        "isoCodeNum": "744",
        "phoneCode": "+47",
        "currency": "kr",
        "currencyCode": "NOK",
        "flag": "ğŸ‡¸ğŸ‡¯"
    },
    {
        "name": "Swaziland",
        "isoCode": "SZ",
        "isoCodeNum": "748",
        "phoneCode": "+268",
        "currency": "L",
        "currencyCode": "SZL",
        "flag": "ğŸ‡¸ğŸ‡¿"
    },
    {
        "name": "Sweden",
        "isoCode": "SE",
        "isoCodeNum": "752",
        "phoneCode": "+46",
        "currency": "kr",
        "currencyCode": "SEK",
        "flag": "ğŸ‡¸ğŸ‡ª"
    },
    {
        "name": "Switzerland",
        "isoCode": "CH",
        "isoCodeNum": "756",
        "phoneCode": "+41",
        "currency": "Fr",
        "currencyCode": "CHF",
        "flag": "ğŸ‡¨ğŸ‡­"
    },
    {
        "name": "Syria",
        "isoCode": "SY",
        "isoCodeNum": "760",
        "phoneCode": "+963",
        "currency": "Â£",
        "currencyCode": "SYP",
        "flag": "ğŸ‡¸ğŸ‡¾"
    },
    {
        "name": "Taiwan",
        "isoCode": "TW",
        "isoCodeNum": "158",
        "phoneCode": "+886",
        "currency": "$",
        "currencyCode": "TWD",
        "flag": "ğŸ‡¹ğŸ‡¼"
    },
    {
        "name": "Tajikistan",
        "isoCode": "TJ",
        "isoCodeNum": "762",
        "phoneCode": "+992",
        "currency": "Ğ…Ğœ",
        "currencyCode": "TJS",
        "flag": "ğŸ‡¹ğŸ‡¯"
    },
    {
        "name": "Tanzania",
        "isoCode": "TZ",
        "isoCodeNum": "834",
        "phoneCode": "+255",
        "currency": "Sh",
        "currencyCode": "TZS",
        "flag": "ğŸ‡¹ğŸ‡¿"
    },
    {
        "name": "Thailand",
        "isoCode": "TH",
        "isoCodeNum": "764",
        "phoneCode": "+66",
        "currency": "à¸¿",
        "currencyCode": "THB",
        "flag": "ğŸ‡¹ğŸ‡­"
    },
    {
        "name": "Timor-Leste",
        "isoCode": "TL",
        "isoCodeNum": "626",
        "phoneCode": "+670",
        "currency": "$",
        "currencyCode": "USD",
        "flag": "ğŸ‡¹ğŸ‡±"
    },
    {
        "name": "Togo",
        "isoCode": "TG",
        "isoCodeNum": "768",
        "phoneCode": "+228",
        "currency": "Fr",
        "currencyCode": "XOF",
        "flag": "ğŸ‡¹ğŸ‡¬"
    },
    {
        "name": "Tokelau",
        "isoCode": "TK",
        "isoCodeNum": "772",
        "phoneCode": "+690",
        "currency": "$",
        "currencyCode": "NZD",
        "flag": "ğŸ‡¹ğŸ‡°"
    },
    {
        "name": "Tonga",
        "isoCode": "TO",
        "isoCodeNum": "776",
        "phoneCode": "+676",
        "currency": "T$",
        "currencyCode": "TOP",
        "flag": "ğŸ‡¹ğŸ‡´"
    },
    {
        "name": "Trinidad and Tobago",
        "isoCode": "TT",
        "isoCodeNum": "780",
        "phoneCode": "+1-868",
        "currency": "$",
        "currencyCode": "TTD",
        "flag": "ğŸ‡¹ğŸ‡¹"
    },
    {
        "name": "Tunisia",
        "isoCode": "TN",
        "isoCodeNum": "788",
        "phoneCode": "+216",
        "currency": "Ø¯.Øª",
        "currencyCode": "TND",
        "flag": "ğŸ‡¹ğŸ‡³"
    },
    {
        "name": "Turkey",
        "isoCode": "TR",
        "isoCodeNum": "792",
        "phoneCode": "+90",
        "currency": "â‚º",
        "currencyCode": "TRY",
        "flag": "ğŸ‡¹ğŸ‡·"
    },
    {
        "name": "Turkmenistan",
        "isoCode": "TM",
        "isoCodeNum": "795",
        "phoneCode": "+993",
        "currency": "m",
        "currencyCode": "TMT",
        "flag": "ğŸ‡¹ğŸ‡²"
    },
    {
        "name": "Turks and Caicos Islands",
        "isoCode": "TC",
        "isoCodeNum": "796",
        "phoneCode": "+1-649",
        "currency": "$",
        "currencyCode": "USD",
        "flag": "ğŸ‡¹ğŸ‡¨"
    },
    {
        "name": "Tuvalu",
        "isoCode": "TV",
        "isoCodeNum": "798",
        "phoneCode": "+688",
        "currency": "$",
        "currencyCode": "AUD",
        "flag": "ğŸ‡¹ğŸ‡»"
    },
    {
        "name": "Uganda",
        "isoCode": "UG",
        "isoCodeNum": "800",
        "phoneCode": "+256",
        "currency": "Sh",
        "currencyCode": "UGX",
        "flag": "ğŸ‡ºğŸ‡¬"
    },
    {
        "name": "Ukraine",
        "isoCode": "UA",
        "isoCodeNum": "804",
        "phoneCode": "+380",
        "currency": "â‚´",
        "currencyCode": "UAH",
        "flag": "ğŸ‡ºğŸ‡¦"
    },
    {
        "name": "United Arab Emirates",
        "isoCode": "AE",
        "isoCodeNum": "784",
        "phoneCode": "+971",
        "currency": "Ø¯.Ø¥",
        "currencyCode": "AED",
        "flag": "ğŸ‡¦ğŸ‡ª"
    },
    {
        "name": "United Kingdom",
        "isoCode": "GB",
        "isoCodeNum": "826",
        "phoneCode": "+44",
        "currency": "Â£",
        "currencyCode": "GBP",
        "flag": "ğŸ‡¬ğŸ‡§"
    },
    {
        "name": "United States",
        "isoCode": "US",
        "isoCodeNum": "840",
        "phoneCode": "+1",
        "currency": "$",
        "currencyCode": "USD",
        "flag": "ğŸ‡ºğŸ‡¸"
    },
    {
        "name": "Uruguay",
        "isoCode": "UY",
        "isoCodeNum": "858",
        "phoneCode": "+598",
        "currency": "$",
        "currencyCode": "UYU",
        "flag": "ğŸ‡ºğŸ‡¾"
    },
    {
        "name": "Uzbekistan",
        "isoCode": "UZ",
        "isoCodeNum": "860",
        "phoneCode": "+998",
        "currency": "so'm",
        "currencyCode": "UZS",
        "flag": "ğŸ‡ºğŸ‡¿"
    },
    {
        "name": "Vanuatu",
        "isoCode": "VU",
        "isoCodeNum": "548",
        "phoneCode": "+678",
        "currency": "Vt",
        "currencyCode": "VUV",
        "flag": "ğŸ‡»ğŸ‡º"
    },
    {
        "name": "Vatican City",
        "isoCode": "VA",
        "isoCodeNum": "336",
        "phoneCode": "+379",
        "currency": "â‚¬",
        "currencyCode": "EUR",
        "flag": "ğŸ‡»ğŸ‡¦"
    },
    {
        "name": "Venezuela",
        "isoCode": "VE",
        "isoCodeNum": "862",
        "phoneCode": "+58",
        "currency": "Bs",
        "currencyCode": "VES",
        "flag": "ğŸ‡»ğŸ‡ª"
    },
    {
        "name": "Vietnam",
        "isoCode": "VN",
        "isoCodeNum": "704",
        "phoneCode": "+84",
        "currency": "â‚«",
        "currencyCode": "VND",
        "flag": "ğŸ‡»ğŸ‡³"
    },
    {
        "name": "Wallis and Futuna",
        "isoCode": "WF",
        "isoCodeNum": "876",
        "phoneCode": "+681",
        "currency": "Fr",
        "currencyCode": "XPF",
        "flag": "ğŸ‡¼ğŸ‡«"
    },
    {
        "name": "Western Sahara",
        "isoCode": "EH",
        "isoCodeNum": "732",
        "phoneCode": "+212",
        "currency": "Ø¯.Ù….",
        "currencyCode": "MAD",
        "flag": "ğŸ‡ªğŸ‡­"
    },
    {
        "name": "Yemen",
        "isoCode": "YE",
        "isoCodeNum": "887",
        "phoneCode": "+967",
        "currency": "ï·¼",
        "currencyCode": "YER",
        "flag": "ğŸ‡¾ğŸ‡ª"
    },
    {
        "name": "Zambia",
        "isoCode": "ZM",
        "isoCodeNum": "894",
        "phoneCode": "+260",
        "currency": "ZK",
        "currencyCode": "ZMW",
        "flag": "ğŸ‡¿ğŸ‡²"
    },
    {
        "name": "Zimbabwe",
        "isoCode": "ZW",
        "isoCodeNum": "716",
        "phoneCode": "+263",
        "currency": "$",
        "currencyCode": "USD",
        "flag": "ğŸ‡¿ğŸ‡¼"
    }
]